{"type": "FeatureCollection", "features": [ {"type": "Feature", "properties": {"norad_id": 34833, "name": "IRIDIUM 33 DEB", "group": "iridium-33-debris", "lat": -56.74613845778921, "lon": -124.9615612365322, "alt_km": 738.2188314632513, "timestamp": "2025-12-16T03:53:27.440570+00:00", "meta": {"OBJECT_NAME": "IRIDIUM 33 DEB", "OBJECT_ID": "1997-051MH", "EPOCH": "2025-12-15T03:47:27.046752", "MEAN_MOTION": 14.52394895, "ECCENTRICITY": 0.00217546, "INCLINATION": 86.3935, "RA_OF_ASC_NODE": 49.9516, "ARG_OF_PERICENTER": 91.2087, "MEAN_ANOMALY": 298.4464, "EPHEMERIS_TYPE": 0, "CLASSIFICATION_TYPE": "U", "NORAD_CAT_ID": 34833, "ELEMENT_SET_NO": 999, "REV_AT_EPOCH": 87750, "BSTAR": 0.0005426588, "MEAN_MOTION_DOT": 2.237e-05, "MEAN_MOTION_DDOT": 0}, "tle": {"line1": "1 34833U 97051MH  25349.15795193  .00002237  00000+0  54266-3 0  9995", "line2": "2 34833  86.3935  49.9516 0021754  91.2087 298.4464 14.52394895877501"}}, "geometry": {"type": "Point", "coordinates": [-124.9615612365322, -56.74613845778921]}}, {"type": "Feature", "properties": {"norad_id": 34870, "name": "IRIDIUM 33 DEB", "group": "iridium-33-debris", "lat": 34.80594299888007, "lon": 129.94530215569355, "alt_km": 627.7899681078661, "timestamp": "2025-12-16T03:53:27.440581+00:00", "meta": {"OBJECT_NAME": "IRIDIUM 33 DEB", "OBJECT_ID": "1997-051MQ", "EPOCH": "2025-12-13T15:51:00.242208", "MEAN_MOTION": 14.76459498, "ECCENTRICITY": 0.00163253, "INCLINATION": 86.31, "RA_OF_ASC_NODE": 313.6624, "ARG_OF_PERICENTER": 179.046, "MEAN_ANOMALY": 357.3162, "EPHEMERIS_TYPE": 0, "CLASSIFICATION_TYPE": "U", "NORAD_CAT_ID": 34870, "ELEMENT_SET_NO": 999, "REV_AT_EPOCH": 88924, "BSTAR": 0.0017247419, "MEAN_MOTION_DOT": 0.00012059, "MEAN_MOTION_DDOT": 0}, "tle": {"line1": "1 34870U 97051MQ  25347.66041947  .00012059  00000+0  17247-2 0  9991", "line2": "2 34870  86.3100 313.6624 0016325 179.0460 357.3162 14.76459498889246"}}, "geometry": {"type": "Point", "coordinates": [129.94530215569355, 34.80594299888007]}}, {"type": "Feature", "properties": {"norad_id": 34896, "name": "IRIDIUM 33 DEB", "group": "iridium-33-debris", "lat": -41.088255137274935, "lon": 148.359925930065, "alt_km": 663.1300994178882, "timestamp": "2025-12-16T03:53:27.440591+00:00", "meta": {"OBJECT_NAME": "IRIDIUM 33 DEB", "OBJECT_ID": "1997-051MY", "EPOCH": "2025-12-15T05:52:43.272192", "MEAN_MOTION": 14.66306707, "ECCENTRICITY": 0.00245889, "INCLINATION": 86.3284, "RA_OF_ASC_NODE": 325.5614, "ARG_OF_PERICENTER": 205.2361, "MEAN_ANOMALY": 217.3935, "EPHEMERIS_TYPE": 0, "CLASSIFICATION_TYPE": "U", "NORAD_CAT_ID": 34896, "ELEMENT_SET_NO": 999, "REV_AT_EPOCH": 87656, "BSTAR": 0.00064086297, "MEAN_MOTION_DOT": 3.573e-05, "MEAN_MOTION_DDOT": 0}, "tle": {"line1": "1 34896U 97051MY  25349.24494528  .00003573  00000+0  64086-3 0  9997", "line2": "2 34896  86.3284 325.5614 0024588 205.2361 217.3935 14.66306707876567"}}, "geometry": {"type": "Point", "coordinates": [148.359925930065, -41.088255137274935]}}, {"type": "Feature", "properties": {"norad_id": 34926, "name": "IRIDIUM 33 DEB", "group": "iridium-33-debris", "lat": 18.047217187571825, "lon": -174.57540050106846, "alt_km": 736.8829656714761, "timestamp": "2025-12-16T03:53:27.440601+00:00", "meta": {"OBJECT_NAME": "IRIDIUM 33 DEB", "OBJECT_ID": "1997-051NF", "EPOCH": "2025-12-15T07:23:48.350400", "MEAN_MOTION": 14.54545382, "ECCENTRICITY": 0.0075009, "INCLINATION": 86.1329, "RA_OF_ASC_NODE": 7.0833, "ARG_OF_PERICENTER": 283.9017, "MEAN_ANOMALY": 90.022, "EPHEMERIS_TYPE": 0, "CLASSIFICATION_TYPE": "U", "NORAD_CAT_ID": 34926, "ELEMENT_SET_NO": 999, "REV_AT_EPOCH": 86494, "BSTAR": 0.003349664, "MEAN_MOTION_DOT": 0.00014866, "MEAN_MOTION_DDOT": 0}, "tle": {"line1": "1 34926U 97051NF  25349.30819850  .00014866  00000+0  33497-2 0  9995", "line2": "2 34926  86.1329   7.0833 0075009 283.9017  90.0220 14.54545382864942"}}, "geometry": {"type": "Point", "coordinates": [-174.57540050106846, 18.047217187571825]}}, {"type": "Feature", "properties": {"norad_id": 34985, "name": "IRIDIUM 33 DEB", "group": "iridium-33-debris", "lat": 46.17536484567414, "lon": -128.3721760727213, "alt_km": 743.8647077277592, "timestamp": "2025-12-16T03:53:27.440628+00:00", "meta": {"OBJECT_NAME": "IRIDIUM 33 DEB", "OBJECT_ID": "1997-051NR", "EPOCH": "2025-12-15T04:05:34.122912", "MEAN_MOTION": 14.42021736, "ECCENTRICITY": 0.00209862, "INCLINATION": 86.3702, "RA_OF_ASC_NODE": 55.8428, "ARG_OF_PERICENTER": 211.4715, "MEAN_ANOMALY": 178.0422, "EPHEMERIS_TYPE": 0, "CLASSIFICATION_TYPE": "U", "NORAD_CAT_ID": 34985, "ELEMENT_SET_NO": 999, "REV_AT_EPOCH": 87210, "BSTAR": 0.00047881813, "MEAN_MOTION_DOT": 1.594e-05, "MEAN_MOTION_DDOT": 0}, "tle": {"line1": "1 34985U 97051NR  25349.17053383  .00001594  00000+0  47882-3 0  9994", "line2": "2 34985  86.3702  55.8428 0020986 211.4715 178.0422 14.42021736872107"}}, "geometry": {"type": "Point", "coordinates": [-128.3721760727213, 46.17536484567414]}}, {"type": "Feature", "properties": {"norad_id": 35051, "name": "IRIDIUM 33 DEB", "group": "iridium-33-debris", "lat": 44.28350414222692, "lon": -176.2235783643572, "alt_km": 725.5738904791269, "timestamp": "2025-12-16T03:53:27.440640+00:00", "meta": {"OBJECT_NAME": "IRIDIUM 33 DEB", "OBJECT_ID": "1997-051NX", "EPOCH": "2025-12-11T08:47:57.045408", "MEAN_MOTION": 14.47588957, "ECCENTRICITY": 0.00106566, "INCLINATION": 86.3243, "RA_OF_ASC_NODE": 9.4603, "ARG_OF_PERICENTER": 94.8899, "MEAN_ANOMALY": 265.3522, "EPHEMERIS_TYPE": 0, "CLASSIFICATION_TYPE": "U", "NORAD_CAT_ID": 35051, "ELEMENT_SET_NO": 999, "REV_AT_EPOCH": 86976, "BSTAR": 0.001042299, "MEAN_MOTION_DOT": 3.858e-05, "MEAN_MOTION_DDOT": 0}, "tle": {"line1": "1 35051U 97051NX  25345.36663247  .00003858  00000+0  10423-2 0  9997", "line2": "2 35051  86.3243   9.4603 0010656  94.8899 265.3522 14.47588957869768"}}, "geometry": {"type": "Point", "coordinates": [-176.2235783643572, 44.28350414222692]}}, {"type": "Feature", "properties": {"norad_id": 35052, "name": "IRIDIUM 33 DEB", "group": "iridium-33-debris", "lat": 7.306853150064712, "lon": -161.462125110247, "alt_km": 766.8347007884904, "timestamp": "2025-12-16T03:53:27.440650+00:00", "meta": {"OBJECT_NAME": "IRIDIUM 33 DEB", "OBJECT_ID": "1997-051NY", "EPOCH": "2025-12-14T12:41:41.757792", "MEAN_MOTION": 14.38494384, "ECCENTRICITY": 0.0013625, "INCLINATION": 86.3309, "RA_OF_ASC_NODE": 19.7092, "ARG_OF_PERICENTER": 80.11, "MEAN_ANOMALY": 280.1635, "EPHEMERIS_TYPE": 0, "CLASSIFICATION_TYPE": "U", "NORAD_CAT_ID": 35052, "ELEMENT_SET_NO": 999, "REV_AT_EPOCH": 87301, "BSTAR": 0.00021343381, "MEAN_MOTION_DOT": 6.72e-06, "MEAN_MOTION_DDOT": 0}, "tle": {"line1": "1 35052U 97051NY  25348.52895553  .00000672  00000+0  21343-3 0  9991", "line2": "2 35052  86.3309  19.7092 0013625  80.1100 280.1635 14.38494384873013"}}, "geometry": {"type": "Point", "coordinates": [-161.462125110247, 7.306853150064712]}}, {"type": "Feature", "properties": {"norad_id": 35080, "name": "IRIDIUM 33 DEB", "group": "iridium-33-debris", "lat": -36.07525843241565, "lon": -126.48926661652449, "alt_km": 587.5166383171509, "timestamp": "2025-12-16T03:53:27.440661+00:00", "meta": {"OBJECT_NAME": "IRIDIUM 33 DEB", "OBJECT_ID": "1997-051PF", "EPOCH": "2025-12-14T21:50:31.542720", "MEAN_MOTION": 14.86372619, "ECCENTRICITY": 0.00598634, "INCLINATION": 86.2067, "RA_OF_ASC_NODE": 51.3389, "ARG_OF_PERICENTER": 172.1513, "MEAN_ANOMALY": 188.0663, "EPHEMERIS_TYPE": 0, "CLASSIFICATION_TYPE": "U", "NORAD_CAT_ID": 35080, "ELEMENT_SET_NO": 999, "REV_AT_EPOCH": 69720, "BSTAR": 0.0037877537, "MEAN_MOTION_DOT": 0.00034651, "MEAN_MOTION_DDOT": 0}, "tle": {"line1": "1 35080U 97051PF  25348.91008730  .00034651  00000+0  37878-2 0  9991", "line2": "2 35080  86.2067  51.3389 0059863 172.1513 188.0663 14.86372619697200"}}, "geometry": {"type": "Point", "coordinates": [-126.48926661652449, -36.07525843241565]}}, {"type": "Feature", "properties": {"norad_id": 35297, "name": "IRIDIUM 33 DEB", "group": "iridium-33-debris", "lat": 18.31855428854667, "lon": -119.89877750279035, "alt_km": 731.1751643350617, "timestamp": "2025-12-16T03:53:27.440671+00:00", "meta": {"OBJECT_NAME": "IRIDIUM 33 DEB", "OBJECT_ID": "1997-051PM", "EPOCH": "2025-12-14T12:55:35.277600", "MEAN_MOTION": 14.45168041, "ECCENTRICITY": 0.00176283, "INCLINATION": 86.3867, "RA_OF_ASC_NODE": 61.9926, "ARG_OF_PERICENTER": 135.2135, "MEAN_ANOMALY": 225.0494, "EPHEMERIS_TYPE": 0, "CLASSIFICATION_TYPE": "U", "NORAD_CAT_ID": 35297, "ELEMENT_SET_NO": 999, "REV_AT_EPOCH": 70452, "BSTAR": 0.0006336217, "MEAN_MOTION_DOT": 2.241e-05, "MEAN_MOTION_DDOT": 0}, "tle": {"line1": "1 35297U 97051PM  25348.53860275  .00002241  00000+0  63362-3 0  9997", "line2": "2 35297  86.3867  61.9926 0017628 135.2135 225.0494 14.45168041704521"}}, "geometry": {"type": "Point", "coordinates": [-119.89877750279035, 18.31855428854667]}}, {"type": "Feature", "properties": {"norad_id": 35299, "name": "IRIDIUM 33 DEB", "group": "iridium-33-debris", "lat": 40.706525328322186, "lon": 34.89785161419199, "alt_km": 725.560693518184, "timestamp": "2025-12-16T03:53:27.440682+00:00", "meta": {"OBJECT_NAME": "IRIDIUM 33 DEB", "OBJECT_ID": "1997-051PP", "EPOCH": "2025-12-15T02:50:07.295136", "MEAN_MOTION": 14.40874224, "ECCENTRICITY": 0.00589595, "INCLINATION": 86.2887, "RA_OF_ASC_NODE": 32.151, "ARG_OF_PERICENTER": 94.8301, "MEAN_ANOMALY": 294.7228, "EPHEMERIS_TYPE": 0, "CLASSIFICATION_TYPE": "U", "NORAD_CAT_ID": 35299, "ELEMENT_SET_NO": 999, "REV_AT_EPOCH": 86365, "BSTAR": 0.00057955204, "MEAN_MOTION_DOT": 1.916e-05, "MEAN_MOTION_DDOT": 0}, "tle": {"line1": "1 35299U 97051PP  25349.11813999  .00001916  00000+0  57955-3 0  9994", "line2": "2 35299  86.2887  32.1510 0058959  94.8301 294.7228 14.40874224863650"}}, "geometry": {"type": "Point", "coordinates": [34.89785161419199, 40.706525328322186]}}]}